[{"OBJECT_NAME":"STARLINK-5440","OBJECT_ID":"2022-175AD","EPOCH":"2026-03-09T04:00:52.611840","MEAN_MOTION":15.08837177,"ECCENTRICITY":0.00013639,"INCLINATION":53.2198,"RA_OF_ASC_NODE":351.3345,"ARG_OF_PERICENTER":87.6535,"MEAN_ANOMALY":272.4613,"EPHEMERIS_TYPE":0,"CLASSIFICATION_TYPE":"U","NORAD_CAT_ID":54785,"ELEMENT_SET_NO":999,"REV_AT_EPOCH":18061,"BSTAR":1.4242573e-5,"MEAN_MOTION_DOT":-6.1e-7,"MEAN_MOTION_DDOT":0},{"OBJECT_NAME":"DELTA 1 DEB","OBJECT_ID":"1977-065GB","EPOCH":"2026-03-09T02:53:34.268064","MEAN_MOTION":14.47196386,"ECCENTRICITY":0.03689655,"INCLINATION":29.1068,"RA_OF_ASC_NODE":351.8301,"ARG_OF_PERICENTER":308.0029,"MEAN_ANOMALY":48.7782,"EPHEMERIS_TYPE":0,"CLASSIFICATION_TYPE":"U","NORAD_CAT_ID":19429,"ELEMENT_SET_NO":999,"REV_AT_EPOCH":87217,"BSTAR":0.0013714479,"MEAN_MOTION_DOT":0.0001237,"MEAN_MOTION_DDOT":0}]
